start=new Date('2022-10-31T00:00:00.000Z').valueOf();
sats=[{"BSTAR":"-0.00004080500000","DECAY_DATE":null,"OBJECT_ID":"2020-074AK","OBJECT_TYPE":"PAYLOAD","CLASSIFICATION_TYPE":"U","EPOCH":"2022-10-30T18:53:43.576224","SEMIMAJOR_AXIS":"6925.360","APOAPSIS":"548.133","NORAD_CAT_ID":"46772","OBJECT_NAME":"STARLINK-1936","REV_AT_EPOCH":"11169","TIME_SYSTEM":"UTC","LAUNCH_DATE":"2020-10-24","ELEMENT_SET_NO":"999","SITE":"AFETR","MEAN_MOTION":"15.06396301","RA_OF_ASC_NODE":"79.9080","TLE_LINE1":"1 46772U 20074AK  22303.78730991 -.00000889  00000-0 -40805-4 0  9991","TLE_LINE2":"2 46772  53.0565  79.9080 0001311 107.7042 252.4090 15.06396301111696","COUNTRY_CODE":"US","GP_ID":"216526647","FILE":"3637924","CENTER_NAME":"EARTH","INCLINATION":"53.0565","PERIOD":"95.592","MEAN_ANOMALY":"252.4090","MEAN_ELEMENT_THEORY":"SGP4","EPHEMERIS_TYPE":"0","ARG_OF_PERICENTER":"107.7042","RCS_SIZE":"LARGE","PERIAPSIS":"546.317","MEAN_MOTION_DDOT":"0.0000000000000","MEAN_MOTION_DOT":"-0.00000889","ECCENTRICITY":"0.00013110","REF_FRAME":"TEME"},{"DECAY_DATE":null,"OBJECT_ID":"2020-074AM","BSTAR":"0.00237980000000","EPOCH":"2022-10-30T11:24:44.629920","SEMIMAJOR_AXIS":"6877.885","OBJECT_TYPE":"PAYLOAD","CLASSIFICATION_TYPE":"U","NORAD_CAT_ID":"46774","APOAPSIS":"501.128","TIME_SYSTEM":"UTC","LAUNCH_DATE":"2020-10-24","MEAN_MOTION":"15.22020050","SITE":"AFETR","ELEMENT_SET_NO":"999","OBJECT_NAME":"STARLINK-1939","REV_AT_EPOCH":"11192","RA_OF_ASC_NODE":"62.3558","COUNTRY_CODE":"US","TLE_LINE2":"2 46774  53.0520  62.3558 0002003 330.8825  29.2058 15.22020050111925","GP_ID":"216501312","FILE":"3637867","TLE_LINE1":"1 46774U 20074AM  22303.47551655  .00055153  00000-0  23798-2 0  9999","MEAN_ELEMENT_THEORY":"SGP4","EPHEMERIS_TYPE":"0","ARG_OF_PERICENTER":"330.8825","CENTER_NAME":"EARTH","PERIOD":"94.611","INCLINATION":"53.0520","MEAN_ANOMALY":"29.2058","REF_FRAME":"TEME","PERIAPSIS":"498.373","RCS_SIZE":"LARGE","MEAN_MOTION_DOT":"0.00055153","MEAN_MOTION_DDOT":"0.0000000000000","ECCENTRICITY":"0.00020030"},{"APOAPSIS":"357.458","NORAD_CAT_ID":"46776","OBJECT_NAME":"STARLINK-1946","REV_AT_EPOCH":"11277","LAUNCH_DATE":"2020-10-24","TIME_SYSTEM":"UTC","SITE":"AFETR","MEAN_MOTION":"15.72353644","ELEMENT_SET_NO":"999","BSTAR":"0.00064670000000","DECAY_DATE":null,"OBJECT_ID":"2020-074AP","CLASSIFICATION_TYPE":"U","OBJECT_TYPE":"PAYLOAD","EPOCH":"2022-10-30T19:16:45.347232","SEMIMAJOR_AXIS":"6730.309","CENTER_NAME":"EARTH","MEAN_ANOMALY":"84.3364","PERIOD":"91.582","INCLINATION":"53.0537","MEAN_ELEMENT_THEORY":"SGP4","ARG_OF_PERICENTER":"275.6758","EPHEMERIS_TYPE":"0","MEAN_MOTION_DOT":"0.00088005","MEAN_MOTION_DDOT":"0.0000000000000","RCS_SIZE":"LARGE","PERIAPSIS":"346.890","ECCENTRICITY":"0.00078510","REF_FRAME":"TEME","RA_OF_ASC_NODE":"3.4670","TLE_LINE1":"1 46776U 20074AP  22303.80330263  .00088005  00000-0  64670-3 0  9995","GP_ID":"216527637","COUNTRY_CODE":"US","TLE_LINE2":"2 46776  53.0537   3.4670 0007851 275.6758  84.3364 15.72353644112772","FILE":"3637924"},{"OBJECT_NAME":"STARLINK-1798","REV_AT_EPOCH":"11202","TIME_SYSTEM":"UTC","LAUNCH_DATE":"2020-10-24","SITE":"AFETR","ELEMENT_SET_NO":"999","MEAN_MOTION":"15.06386348","APOAPSIS":"548.282","NORAD_CAT_ID":"46779","OBJECT_TYPE":"PAYLOAD","CLASSIFICATION_TYPE":"U","EPOCH":"2022-10-30T16:27:08.635104","SEMIMAJOR_AXIS":"6925.390","BSTAR":"-0.00012713000000","DECAY_DATE":null,"OBJECT_ID":"2020-074AS","RCS_SIZE":"LARGE","PERIAPSIS":"546.229","MEAN_MOTION_DDOT":"0.0000000000000","MEAN_MOTION_DOT":"-0.00002174","ECCENTRICITY":"0.00014820","REF_FRAME":"TEME","CENTER_NAME":"EARTH","MEAN_ANOMALY":"255.4780","PERIOD":"95.593","INCLINATION":"53.0566","MEAN_ELEMENT_THEORY":"SGP4","EPHEMERIS_TYPE":"0","ARG_OF_PERICENTER":"104.6374","TLE_LINE1":"1 46779U 20074AS  22303.68551661 -.00002174  00000-0 -12713-3 0  9997","COUNTRY_CODE":"US","TLE_LINE2":"2 46779  53.0566  55.3711 0001482 104.6374 255.4780 15.06386348112023","GP_ID":"216525896","FILE":"3637924","RA_OF_ASC_NODE":"55.3711"},{"RA_OF_ASC_NODE":"55.7199","COUNTRY_CODE":"US","TLE_LINE2":"2 46780  53.0562  55.7199 0001416  63.0253 297.0881 15.06405019112016","GP_ID":"216526148","FILE":"3637924","TLE_LINE1":"1 46780U 20074AT  22303.60808704 -.00000093  00000-0  12653-4 0  9995","MEAN_ELEMENT_THEORY":"SGP4","ARG_OF_PERICENTER":"63.0253","EPHEMERIS_TYPE":"0","CENTER_NAME":"EARTH","PERIOD":"95.592","INCLINATION":"53.0562","MEAN_ANOMALY":"297.0881","REF_FRAME":"TEME","RCS_SIZE":"LARGE","PERIAPSIS":"546.218","MEAN_MOTION_DDOT":"0.0000000000000","MEAN_MOTION_DOT":"-0.00000093","ECCENTRICITY":"0.00014160","DECAY_DATE":null,"OBJECT_ID":"2020-074AT","BSTAR":"0.00001265300000","EPOCH":"2022-10-30T14:35:38.720256","SEMIMAJOR_AXIS":"6925.333","OBJECT_TYPE":"PAYLOAD","CLASSIFICATION_TYPE":"U","NORAD_CAT_ID":"46780","APOAPSIS":"548.179","TIME_SYSTEM":"UTC","LAUNCH_DATE":"2020-10-24","MEAN_MOTION":"15.06405019","SITE":"AFETR","ELEMENT_SET_NO":"999","OBJECT_NAME":"STARLINK-1832","REV_AT_EPOCH":"11201"},{"REF_FRAME":"TEME","ECCENTRICITY":"0.00013700","MEAN_MOTION_DOT":"-0.00000634","MEAN_MOTION_DDOT":"0.0000000000000","PERIAPSIS":"546.298","RCS_SIZE":"LARGE","ARG_OF_PERICENTER":"98.5920","EPHEMERIS_TYPE":"0","MEAN_ELEMENT_THEORY":"SGP4","INCLINATION":"53.0548","PERIOD":"95.593","MEAN_ANOMALY":"261.5225","CENTER_NAME":"EARTH","FILE":"3637924","GP_ID":"216526393","COUNTRY_CODE":"US","TLE_LINE2":"2 46781  53.0548  64.4511 0001370  98.5920 261.5225 15.06389139111920","TLE_LINE1":"1 46781U 20074AU  22303.89100465 -.00000634  00000-0 -23697-4 0  9998","RA_OF_ASC_NODE":"64.4511","SITE":"AFETR","MEAN_MOTION":"15.06389139","ELEMENT_SET_NO":"999","LAUNCH_DATE":"2020-10-24","TIME_SYSTEM":"UTC","REV_AT_EPOCH":"11192","OBJECT_NAME":"STARLINK-1834","NORAD_CAT_ID":"46781","APOAPSIS":"548.196","SEMIMAJOR_AXIS":"6925.382","EPOCH":"2022-10-30T21:23:02.801760","CLASSIFICATION_TYPE":"U","OBJECT_TYPE":"PAYLOAD","OBJECT_ID":"2020-074AU","DECAY_DATE":null,"BSTAR":"-0.00002369700000"},{"LAUNCH_DATE":"2020-10-24","TIME_SYSTEM":"UTC","SITE":"AFETR","ELEMENT_SET_NO":"999","MEAN_MOTION":"15.06404911","OBJECT_NAME":"STARLINK-1835","REV_AT_EPOCH":"11203","NORAD_CAT_ID":"46782","APOAPSIS":"548.110","EPOCH":"2022-10-30T17:30:49.109184","SEMIMAJOR_AXIS":"6925.334","CLASSIFICATION_TYPE":"U","OBJECT_TYPE":"PAYLOAD","DECAY_DATE":null,"OBJECT_ID":"2020-074AV","BSTAR":"0.00005639300000","REF_FRAME":"TEME","MEAN_MOTION_DOT":"0.00000559","MEAN_MOTION_DDOT":"0.0000000000000","PERIAPSIS":"546.287","RCS_SIZE":"LARGE","ECCENTRICITY":"0.00013160","MEAN_ELEMENT_THEORY":"SGP4","EPHEMERIS_TYPE":"0","ARG_OF_PERICENTER":"82.4669","CENTER_NAME":"EARTH","PERIOD":"95.592","MEAN_ANOMALY":"277.6469","INCLINATION":"53.0569","GP_ID":"216527138","COUNTRY_CODE":"US","TLE_LINE2":"2 46782  53.0569  55.1731 0001316  82.4669 277.6469 15.06404911112034","FILE":"3637924","TLE_LINE1":"1 46782U 20074AV  22303.72973506  .00000559  00000-0  56393-4 0  9998","RA_OF_ASC_NODE":"55.1731"},{"BSTAR":"-0.00005407200000","DECAY_DATE":null,"OBJECT_ID":"2020-074AW","OBJECT_TYPE":"PAYLOAD","CLASSIFICATION_TYPE":"U","EPOCH":"2022-10-30T17:52:04.083744","SEMIMAJOR_AXIS":"6925.361","APOAPSIS":"548.174","NORAD_CAT_ID":"46783","OBJECT_NAME":"STARLINK-1851","REV_AT_EPOCH":"11203","TIME_SYSTEM":"UTC","LAUNCH_DATE":"2020-10-24","ELEMENT_SET_NO":"999","SITE":"AFETR","MEAN_MOTION":"15.06395813","RA_OF_ASC_NODE":"55.1043","TLE_LINE1":"1 46783U 20074AW  22303.74449171 -.00001087  00000-0 -54072-4 0  9998","TLE_LINE2":"2 46783  53.0548  55.1043 0001368  93.8410 266.2735 15.06395813112035","COUNTRY_CODE":"US","GP_ID":"216525398","FILE":"3637924","CENTER_NAME":"EARTH","PERIOD":"95.592","INCLINATION":"53.0548","MEAN_ANOMALY":"266.2735","MEAN_ELEMENT_THEORY":"SGP4","ARG_OF_PERICENTER":"93.8410","EPHEMERIS_TYPE":"0","RCS_SIZE":"LARGE","PERIAPSIS":"546.279","MEAN_MOTION_DDOT":"0.0000000000000","MEAN_MOTION_DOT":"-0.00001087","ECCENTRICITY":"0.00013680","REF_FRAME":"TEME"},{"MEAN_MOTION_DDOT":"0.0000000000000","MEAN_MOTION_DOT":"-0.00002941","PERIAPSIS":"546.122","RCS_SIZE":"LARGE","ECCENTRICITY":"0.00016450","REF_FRAME":"TEME","CENTER_NAME":"EARTH","INCLINATION":"53.0557","PERIOD":"95.593","MEAN_ANOMALY":"274.7265","MEAN_ELEMENT_THEORY":"SGP4","EPHEMERIS_TYPE":"0","ARG_OF_PERICENTER":"85.3912","TLE_LINE1":"1 46784U 20074AX  22303.48183900 -.00002941  00000-0 -17870-3 0  9999","GP_ID":"216501064","COUNTRY_CODE":"US","TLE_LINE2":"2 46784  53.0557  56.2573 0001645  85.3912 274.7265 15.06384319111992","FILE":"3637867","RA_OF_ASC_NODE":"56.2573","OBJECT_NAME":"STARLINK-1882","REV_AT_EPOCH":"11199","LAUNCH_DATE":"2020-10-24","TIME_SYSTEM":"UTC","MEAN_MOTION":"15.06384319","SITE":"AFETR","ELEMENT_SET_NO":"999","APOAPSIS":"548.401","NORAD_CAT_ID":"46784","CLASSIFICATION_TYPE":"U","OBJECT_TYPE":"PAYLOAD","EPOCH":"2022-10-30T11:33:50.889600","SEMIMAJOR_AXIS":"6925.397","BSTAR":"-0.00017870000000","DECAY_DATE":null,"OBJECT_ID":"2020-074AX"},{"CENTER_NAME":"EARTH","PERIOD":"95.593","MEAN_ANOMALY":"262.3581","INCLINATION":"53.0556","MEAN_ELEMENT_THEORY":"SGP4","EPHEMERIS_TYPE":"0","ARG_OF_PERICENTER":"97.7553","MEAN_MOTION_DOT":"-0.00002399","MEAN_MOTION_DDOT":"0.0000000000000","RCS_SIZE":"LARGE","PERIAPSIS":"546.349","ECCENTRICITY":"0.00012750","REF_FRAME":"TEME","RA_OF_ASC_NODE":"55.1445","TLE_LINE1":"1 46785U 20074AY  22303.73342863 -.00002399  00000-0 -14226-3 0  9992","GP_ID":"216526893","COUNTRY_CODE":"US","TLE_LINE2":"2 46785  53.0556  55.1445 0001275  97.7553 262.3581 15.06394134112031","FILE":"3637924","APOAPSIS":"548.115","NORAD_CAT_ID":"46785","OBJECT_NAME":"STARLINK-1883","REV_AT_EPOCH":"11203","LAUNCH_DATE":"2020-10-24","TIME_SYSTEM":"UTC","SITE":"AFETR","ELEMENT_SET_NO":"999","MEAN_MOTION":"15.06394134","BSTAR":"-0.00014226000000","DECAY_DATE":null,"OBJECT_ID":"2020-074AY","CLASSIFICATION_TYPE":"U","OBJECT_TYPE":"PAYLOAD","EPOCH":"2022-10-30T17:36:08.233632","SEMIMAJOR_AXIS":"6925.367"}];
